ONEWEB-0351             
1 49215U 21083AF  23059.27066696  .00000115  00000+0  25160-3 0  9999
2 49215  87.9308 154.2974 0001285 117.8098 242.3166 13.20771657 79032
ONEWEB-0351             
1 49215U 21083AF  23059.34642359  .00000081  00000+0  16691-3 0  9994
2 49215  87.9308 154.2824 0001291 117.8191 242.3073 13.20771938 77731
ONEWEB-0351             
1 49215U 21083AF  23059.80096484 -.00000010  00000+0 -57074-4 0  9992
2 49215  87.9305 154.1921 0001289 116.6127 243.5138 13.20771451 77799
ONEWEB-0351             
1 49215U 21083AF  23060.25550465  .00000025  00000+0  28782-4 0  9995
2 49215  87.9304 154.1021 0001318 116.9821 243.1447 13.20772261 77852
ONEWEB-0351             
1 49215U 21083AF  23061.01307269 -.00000005  00000+0 -45163-4 0  9994
2 49215  87.9305 153.9522 0001342 118.5392 241.5877 13.20771783 79268
ONEWEB-0351             
1 49215U 21083AF  23061.61912751 -.00000033  00000+0 -11272-3 0  9992
2 49215  87.9307 153.8323 0001339 118.7624 241.3644 13.20771275 78034
ONEWEB-0351             
1 49215U 21083AF  23062.30093830 -.00000005  00000+0 -43705-4 0  9993
2 49215  87.9306 153.6972 0001378 119.3197 240.8074 13.20771711 78122
ONEWEB-0351             
1 49215U 21083AF  23062.30093830 -.00000005  00000+0 -43705-4 0  9993
2 49215  87.9306 153.6972 0001378 119.3197 240.8074 13.20771711 79437
